{
"type": "FeatureCollection",
"name": "parkiralista",
"crs": { "type": "name", "properties": { "name": "urn:ogc:def:crs:OGC:1.3:CRS84" } },
"features": [
{ "type": "Feature", "properties": { "parkiraliste_id": 1.0, "naziv": "parkiraliste_1", "zona_id": 1.0, "zona": "Severna", "tip": "javno" }, "geometry": { "type": "Polygon", "coordinates": [ [ [ 19.851504, 45.248282 ], [ 19.85159, 45.248148 ], [ 19.850865, 45.247949 ], [ 19.850806, 45.248063 ], [ 19.851504, 45.248282 ] ] ] } },
{ "type": "Feature", "properties": { "parkiraliste_id": 2.0, "naziv": "parkiraliste_2", "zona_id": 1.0, "zona": "Severna", "tip": "privatno" }, "geometry": { "type": "Polygon", "coordinates": [ [ [ 19.851568, 45.248399 ], [ 19.851641, 45.248276 ], [ 19.852266, 45.248471 ], [ 19.852185, 45.248588 ], [ 19.851568, 45.248399 ] ] ] } },
{ "type": "Feature", "properties": { "parkiraliste_id": 3.0, "naziv": "parkiraliste_3", "zona_id": 1.0, "zona": "Severna", "tip": "privatno" }, "geometry": { "type": "Polygon", "coordinates": [ [ [ 19.849253, 45.246813 ], [ 19.849487, 45.246424 ], [ 19.849822, 45.246537 ], [ 19.849578, 45.246899 ], [ 19.849253, 45.246813 ] ] ] } },
{ "type": "Feature", "properties": { "parkiraliste_id": 4.0, "naziv": "parkiraliste_4", "zona_id": 3.0, "zona": "Istocna", "tip": "javno" }, "geometry": { "type": "Polygon", "coordinates": [ [ [ 19.853891, 45.246779 ], [ 19.85424, 45.246261 ], [ 19.854382, 45.246312 ], [ 19.854076, 45.246818 ], [ 19.853891, 45.246779 ] ] ] } },
{ "type": "Feature", "properties": { "parkiraliste_id": 5.0, "naziv": "parkiraliste_5", "zona_id": 3.0, "zona": "Istocna", "tip": "privatno" }, "geometry": { "type": "Polygon", "coordinates": [ [ [ 19.852745, 45.248539 ], [ 19.853279, 45.24771 ], [ 19.853475, 45.247755 ], [ 19.852955, 45.248578 ], [ 19.852745, 45.248539 ] ] ] } },
{ "type": "Feature", "properties": { "parkiraliste_id": 6.0, "naziv": "parkiraliste_6", "zona_id": 5.0, "zona": "Centralna", "tip": "javno" }, "geometry": { "type": "Polygon", "coordinates": [ [ [ 19.850573, 45.246333 ], [ 19.850812, 45.246367 ], [ 19.850887, 45.246306 ], [ 19.851026, 45.246342 ], [ 19.851281, 45.245948 ], [ 19.851093, 45.245861 ], [ 19.851005, 45.245834 ], [ 19.851276, 45.245411 ], [ 19.85116, 45.245377 ], [ 19.850573, 45.246333 ] ] ] } },
{ "type": "Feature", "properties": { "parkiraliste_id": 7.0, "naziv": "parkiraliste_7", "zona_id": 5.0, "zona": "Centralna", "tip": "privatno" }, "geometry": { "type": "Polygon", "coordinates": [ [ [ 19.849854, 45.245936 ], [ 19.850171, 45.245415 ], [ 19.850649, 45.245517 ], [ 19.850316, 45.246076 ], [ 19.849854, 45.245936 ] ] ] } },
{ "type": "Feature", "properties": { "parkiraliste_id": 8.0, "naziv": "parkiraliste_8", "zona_id": 4.0, "zona": "Zapadna", "tip": "javno" }, "geometry": { "type": "Polygon", "coordinates": [ [ [ 19.847461, 45.244222 ], [ 19.84748, 45.244146 ], [ 19.84802, 45.244222 ], [ 19.84799, 45.24429 ], [ 19.847461, 45.244222 ] ] ] } },
{ "type": "Feature", "properties": { "parkiraliste_id": 9.0, "naziv": "parkiraliste_9", "zona_id": 4.0, "zona": "Zapadna", "tip": "javno" }, "geometry": { "type": "Polygon", "coordinates": [ [ [ 19.850007, 45.244943 ], [ 19.850109, 45.244788 ], [ 19.848945, 45.244431 ], [ 19.848843, 45.244588 ], [ 19.850007, 45.244943 ] ] ] } },
{ "type": "Feature", "properties": { "parkiraliste_id": 10.0, "naziv": "parkiraliste_10", "zona_id": 4.0, "zona": "Zapadna", "tip": "privatno" }, "geometry": { "type": "Polygon", "coordinates": [ [ [ 19.848003, 45.245145 ], [ 19.848245, 45.244726 ], [ 19.84839, 45.244767 ], [ 19.848137, 45.245175 ], [ 19.848003, 45.245145 ] ] ] } },
{ "type": "Feature", "properties": { "parkiraliste_id": 11.0, "naziv": "parkiraliste_11", "zona_id": 4.0, "zona": "Zapadna", "tip": "privatno" }, "geometry": { "type": "Polygon", "coordinates": [ [ [ 19.85093, 45.243455 ], [ 19.851032, 45.243315 ], [ 19.85016, 45.243066 ], [ 19.850079, 45.243196 ], [ 19.85093, 45.243455 ] ] ] } },
{ "type": "Feature", "properties": { "parkiraliste_id": 12.0, "naziv": "parkiraliste_12", "zona_id": 2.0, "zona": "Juzna", "tip": "javno" }, "geometry": { "type": "Polygon", "coordinates": [ [ [ 19.850841, 45.244286 ], [ 19.850976, 45.244108 ], [ 19.851874, 45.244384 ], [ 19.85178, 45.244526 ], [ 19.850841, 45.244286 ] ] ] } }
]
}
