{
"type": "FeatureCollection",
"name": "zone_ociscene",
"crs": { "type": "name", "properties": { "name": "urn:ogc:def:crs:OGC:1.3:CRS84" } },
"features": [
{ "type": "Feature", "properties": { "naziv": "Istocna", "povrsina_m2": 63308.05 }, "geometry": { "type": "Polygon", "coordinates": [ [ [ 19.853379170221956, 45.247435739898371 ], [ 19.853310908357724, 45.247534948394367 ], [ 19.85249048936112, 45.248709867142331 ], [ 19.855799, 45.249683 ], [ 19.855797503573772, 45.249669822005913 ], [ 19.855796383386487, 45.249659957285104 ], [ 19.855783743614076, 45.249548647264476 ], [ 19.855014279441402, 45.245083033787189 ], [ 19.855011, 45.245064 ], [ 19.854690723486137, 45.245529515206542 ], [ 19.853379170221956, 45.247435739898371 ] ] ] } },
{ "type": "Feature", "properties": { "naziv": "Zapadna", "povrsina_m2": 77987.33 }, "geometry": { "type": "Polygon", "coordinates": [ [ [ 19.847257665845838, 45.244231790840786 ], [ 19.847114, 45.24526 ], [ 19.848939392084205, 45.247115775705105 ], [ 19.851363, 45.243243 ], [ 19.849522735810243, 45.242700690355001 ], [ 19.848583, 45.244252 ], [ 19.848576140321558, 45.244250820622803 ], [ 19.847286, 45.244029 ], [ 19.847257665845838, 45.244231790840786 ] ] ] } },
{ "type": "Feature", "properties": { "naziv": "Severna", "povrsina_m2": 51084.03 }, "geometry": { "type": "Polygon", "coordinates": [ [ [ 19.854690723486137, 45.245529515206542 ], [ 19.854207, 45.246197 ], [ 19.85029, 45.244966 ], [ 19.851363, 45.243243 ], [ 19.848939392084205, 45.247115775705105 ], [ 19.8497, 45.247889 ], [ 19.85071813247902, 45.248188510577577 ], [ 19.851989527145708, 45.248562507820559 ], [ 19.85249048936112, 45.248709867142331 ], [ 19.853310908357724, 45.247534948394367 ], [ 19.853379170221956, 45.247435739898371 ], [ 19.854690723486137, 45.245529515206542 ] ], [ [ 19.850284, 45.244969 ], [ 19.854223, 45.246204 ], [ 19.8533758873564, 45.247434710853604 ], [ 19.849513752571145, 45.246223998012141 ], [ 19.850284, 45.244969 ] ] ] } },
{ "type": "Feature", "properties": { "naziv": "Juzna", "povrsina_m2": 93329.94 }, "geometry": { "type": "Polygon", "coordinates": [ [ [ 19.851653, 45.243323 ], [ 19.849528, 45.242692 ], [ 19.849522735810243, 45.242700690355001 ], [ 19.851363, 45.243243 ], [ 19.85029, 45.244966 ], [ 19.854207, 45.246197 ], [ 19.854690723486137, 45.245529515206542 ], [ 19.855011, 45.245064 ], [ 19.855014279441402, 45.245083033787189 ], [ 19.855783743614076, 45.249548647264476 ], [ 19.855416, 45.24631 ], [ 19.85502246333585, 45.245071740560775 ], [ 19.854427786979056, 45.243200495122025 ], [ 19.854280661410129, 45.242737521786118 ], [ 19.854277, 45.242726 ], [ 19.851653, 45.243323 ] ] ] } },
{ "type": "Feature", "properties": { "naziv": "Centralna", "povrsina_m2": 50895.86 }, "geometry": { "type": "Polygon", "coordinates": [ [ [ 19.8533758873564, 45.247434710853604 ], [ 19.854223, 45.246204 ], [ 19.850284, 45.244969 ], [ 19.849513752571145, 45.246223998012141 ], [ 19.8533758873564, 45.247434710853604 ] ] ] } }
]
}
